ONEWEB-0098             
1 45442U 20020U   25068.54512739 -.00000547  00000+0 -15785-2 0  9995
2 45442  87.8830 113.6892 0001976  89.4135 270.7219 13.11418259241749
ONEWEB-0055             
1 45443U 20020V   25068.53072214 -.00000520  00000+0 -15045-2 0  9994
2 45443  87.8829 113.6954 0002000  96.3461 263.7894 13.11417371241717
ONEWEB-0093             
1 45444U 20020W   25068.50628627  .00000345  00000+0  93831-3 0  9990
2 45444  87.8831 113.6834 0002253  98.0125 262.1259 13.11416150241772
ONEWEB-0029             
1 45445U 20020X   25068.60107959 -.00000449  00000+0 -13030-2 0  9991
2 45445  87.8830 113.6779 0002095 101.8915 258.2448 13.11413408241762
ONEWEB-0068             
1 45446U 20020Y   25068.50599985  .00000514  00000+0  14136-2 0  9994
2 45446  87.8831 113.6853 0002142 100.2628 259.8742 13.11414757241698
ONEWEB-0046             
1 45447U 20020Z   25068.65026836  .00000567  00000+0  15652-2 0  9993
2 45447  87.8827 113.6658 0001856 106.2399 253.8933 13.11417004241738
ONEWEB-0063             
1 45448U 20020AA  25068.60279284 -.00000461  00000+0 -13370-2 0  9996
2 45448  87.8829 113.6740 0001693 102.3149 257.8169 13.11417952241807
ONEWEB-0019             
1 45449U 20020AB  25068.50106938  .00000456  00000+0  12516-2 0  9994
2 45449  87.8833 113.7081 0001873  93.0839 267.0503 13.11415898241637
